IRIDIUM 39              
1 25042U 97069D   25049.49635650  .00001124  00000+0  29129-3 0  9995
2 25042  86.3861 262.0226 0017588 350.0023  10.0828 14.48912230431774
IRIDIUM 38              
1 25043U 97069E   25049.18126801  .00000839  00000+0  27138-3 0  9995
2 25043  86.3925 283.2518 0003693 106.4162 253.7442 14.37921622428850
IRIDIUM 42              
1 25077U 97077A   25049.18122677  .00000691  00000+0  23043-3 0  9995
2 25077  86.3939 289.2793 0002512  99.9332 260.2148 14.36173651424118
IRIDIUM 44              
1 25078U 97077B   25049.31755607  .00000881  00000+0  27353-3 0  9995
2 25078  86.3912 271.4442 0003821  74.0361 286.1259 14.40045500426594
IRIDIUM 45              
1 25104U 97082A   25049.52920186  .00018009  00000+0  73674-3 0  9998
2 25104  86.3584 105.2880 0131219  55.5511 305.8047 15.16542298434024
IRIDIUM 24              
1 25105U 97082B   25049.51235951  .00001062  00000+0  31812-3 0  9996
2 25105  86.3936 130.6441 0013544 108.1720 252.0956 14.41894412426116
IRIDIUM 51              
1 25262U 98018A   25049.18061482  .00041322  00000+0  12105-2 0  9995
2 25262  86.3865 114.3222 0103413 345.6455  14.1859 15.29795693428776
IRIDIUM 57              
1 25273U 98019B   25049.62922920  .00000861  00000+0  29153-3 0  9995
2 25273  86.4004 194.8787 0002112  94.4539 265.6899 14.35737557407774
